{
  "type": "FeatureCollection",
  "features": [
    {
      "type": "Feature",
      "properties": {
        "norad_id": 65943,
        "name": "E-KAGAKU-1",
        "group": "stations",
        "lat": 51.04658679974415,
        "lon": -74.4164744937214,
        "alt_km": 385.41565770527086,
        "timestamp": "2025-12-03T22:42:31.495244+00:00",
        "meta_object_name": "E-KAGAKU-1",
        "meta_object_id": "1998-067XQ",
        "meta_epoch": "2025-12-02T21:39:34.941600",
        "meta_mean_motion": 15.57714998,
        "meta_eccentricity": 0.00035202,
        "meta_inclination": 51.6296,
        "meta_ra_of_asc_node": 189.358,
        "meta_arg_of_pericenter": 147.4331,
        "meta_mean_anomaly": 212.6879,
        "meta_ephemeris_type": 0,
        "meta_classification_type": "U",
        "meta_norad_cat_id": 65943,
        "meta_element_set_no": 999,
        "meta_rev_at_epoch": 832,
        "meta_bstar": 0.00096701912,
        "meta_mean_motion_dot": 0.00073283,
        "meta_mean_motion_ddot": 0,
        "tle_line1": "1 65943U 98067XQ  25336.90248775  .00073283  00000+0  96702-3 0  9997",
        "tle_line2": "2 65943  51.6296 189.3580 0003520 147.4331 212.6879 15.57714998  8329"
      },
      "geometry": {
        "type": "Point",
        "coordinates": [
          -74.4164744937214,
          51.04658679974415
        ]
      }
    },
    {
      "type": "Feature",
      "properties": {
        "norad_id": 66052,
        "name": "HRC MONOBLOCK CAMERA",
        "group": "stations",
        "lat": -41.828362873797744,
        "lon": 50.48745247742699,
        "alt_km": 411.44893862298704,
        "timestamp": "2025-12-03T22:42:31.495255+00:00",
        "meta_object_name": "HRC MONOBLOCK CAMERA",
        "meta_object_id": "1998-067XR",
        "meta_epoch": "2025-12-03T07:47:25.348416",
        "meta_mean_motion": 15.53212477,
        "meta_eccentricity": 0.0004389,
        "meta_inclination": 51.6293,
        "meta_ra_of_asc_node": 188.4201,
        "meta_arg_of_pericenter": 146.7187,
        "meta_mean_anomaly": 213.408,
        "meta_ephemeris_type": 0,
        "meta_classification_type": "U",
        "meta_norad_cat_id": 66052,
        "meta_element_set_no": 999,
        "meta_rev_at_epoch": 737,
        "meta_bstar": 0.0006297,
        "meta_mean_motion_dot": 0.00040058,
        "meta_mean_motion_ddot": 0,
        "tle_line1": "1 66052U 98067XR  25337.32459894  .00040058  00000+0  62970-3 0  9996",
        "tle_line2": "2 66052  51.6293 188.4201 0004389 146.7187 213.4080 15.53212477  7371"
      },
      "geometry": {
        "type": "Point",
        "coordinates": [
          50.48745247742699,
          -41.828362873797744
        ]
      }
    },
    {
      "type": "Feature",
      "properties": {
        "norad_id": 66174,
        "name": "HTV-X1",
        "group": "stations",
        "lat": -51.51549917975053,
        "lon": 91.2752936519014,
        "alt_km": 422.39428220143054,
        "timestamp": "2025-12-03T22:42:31.495264+00:00",
        "meta_object_name": "HTV-X1",
        "meta_object_id": "2025-241A",
        "meta_epoch": "2025-12-03T01:26:08.635488",
        "meta_mean_motion": 15.49262423,
        "meta_eccentricity": 0.00036204,
        "meta_inclination": 51.6309,
        "meta_ra_of_asc_node": 190.4017,
        "meta_arg_of_pericenter": 198.708,
        "meta_mean_anomaly": 161.3776,
        "meta_ephemeris_type": 0,
        "meta_classification_type": "U",
        "meta_norad_cat_id": 66174,
        "meta_element_set_no": 999,
        "meta_rev_at_epoch": 51,
        "meta_bstar": 0.00021764811,
        "meta_mean_motion_dot": 0.0001167,
        "meta_mean_motion_ddot": 0,
        "tle_line1": "1 66174U 25241A   25337.05982217  .00011670  00000+0  21765-3 0  9990",
        "tle_line2": "2 66174  51.6309 190.4017 0003620 198.7080 161.3776 15.49262423   511"
      },
      "geometry": {
        "type": "Point",
        "coordinates": [
          91.2752936519014,
          -51.51549917975053
        ]
      }
    },
    {
      "type": "Feature",
      "properties": {
        "norad_id": 66515,
        "name": "SZ-21 MODULE",
        "group": "stations",
        "lat": -20.329032562149557,
        "lon": -85.54245662898302,
        "alt_km": 380.23959975618527,
        "timestamp": "2025-12-03T22:42:31.495273+00:00",
        "meta_object_name": "SZ-21 MODULE",
        "meta_object_id": "2025-246C",
        "meta_epoch": "2025-12-03T07:59:41.917920",
        "meta_mean_motion": 15.61790567,
        "meta_eccentricity": 0.0005832,
        "meta_inclination": 41.4771,
        "meta_ra_of_asc_node": 73.3983,
        "meta_arg_of_pericenter": 205.8085,
        "meta_mean_anomaly": 154.2464,
        "meta_ephemeris_type": 0,
        "meta_classification_type": "U",
        "meta_norad_cat_id": 66515,
        "meta_element_set_no": 999,
        "meta_rev_at_epoch": 297,
        "meta_bstar": 0.00036812,
        "meta_mean_motion_dot": 0.0003262,
        "meta_mean_motion_ddot": 0,
        "tle_line1": "1 66515U 25246C   25337.33312405  .00032620  00000+0  36812-3 0  9998",
        "tle_line2": "2 66515  41.4771  73.3983 0005832 205.8085 154.2464 15.61790567  2979"
      },
      "geometry": {
        "type": "Point",
        "coordinates": [
          -85.54245662898302,
          -20.329032562149557
        ]
      }
    },
    {
      "type": "Feature",
      "properties": {
        "norad_id": 66645,
        "name": "SHENZHOU-22",
        "group": "stations",
        "lat": 29.017304859440888,
        "lon": 108.98236330446926,
        "alt_km": 386.09035017514725,
        "timestamp": "2025-12-03T22:42:31.495283+00:00",
        "meta_object_name": "SHENZHOU-22",
        "meta_object_id": "2025-272A",
        "meta_epoch": "2025-12-03T08:40:01.753824",
        "meta_mean_motion": 15.58580261,
        "meta_eccentricity": 0.00100709,
        "meta_inclination": 41.4677,
        "meta_ra_of_asc_node": 73.6192,
        "meta_arg_of_pericenter": 319.5464,
        "meta_mean_anomaly": 40.4624,
        "meta_ephemeris_type": 0,
        "meta_classification_type": "U",
        "meta_norad_cat_id": 66645,
        "meta_element_set_no": 999,
        "meta_rev_at_epoch": 26257,
        "meta_bstar": 0.00034171532,
        "meta_mean_motion_dot": 0.00026743,
        "meta_mean_motion_ddot": 0,
        "tle_line1": "1 66645U 25272A   25337.36113141  .00026743  00000+0  34172-3 0  9996",
        "tle_line2": "2 66645  41.4677  73.6192 0010070 319.5464  40.4624 15.58580261262579"
      },
      "geometry": {
        "type": "Point",
        "coordinates": [
          108.98236330446926,
          29.017304859440888
        ]
      }
    },
    {
      "type": "Feature",
      "properties": {
        "norad_id": 66646,
        "name": "CZ-2F R/B",
        "group": "stations",
        "lat": 35.1255963012758,
        "lon": 119.14519275625045,
        "alt_km": 288.7784582064969,
        "timestamp": "2025-12-03T22:42:31.495292+00:00",
        "meta_object_name": "CZ-2F R/B",
        "meta_object_id": "2025-272B",
        "meta_epoch": "2025-11-26T11:17:54.506400",
        "meta_mean_motion": 16.01945612,
        "meta_eccentricity": 0.01210796,
        "meta_inclination": 41.4431,
        "meta_ra_of_asc_node": 114.9009,
        "meta_arg_of_pericenter": 133.7676,
        "meta_mean_anomaly": 227.3272,
        "meta_ephemeris_type": 0,
        "meta_classification_type": "U",
        "meta_norad_cat_id": 66646,
        "meta_element_set_no": 999,
        "meta_rev_at_epoch": 21,
        "meta_bstar": 0.00029319366,
        "meta_mean_motion_dot": 0.00449059,
        "meta_mean_motion_ddot": 7.567612e-06,
        "tle_line1": "1 66646U 25272B   25330.47076975  .00449059  75676-5  29319-3 0  9998",
        "tle_line2": "2 66646  41.4431 114.9009 0121079 133.7676 227.3272 16.01945612   217"
      },
      "geometry": {
        "type": "Point",
        "coordinates": [
          119.14519275625045,
          35.1255963012758
        ]
      }
    },
    {
      "type": "Feature",
      "properties": {
        "norad_id": 66664,
        "name": "SOYUZ-MS 28",
        "group": "stations",
        "lat": -51.51520269434785,
        "lon": 91.27634771190293,
        "alt_km": 422.39632403870746,
        "timestamp": "2025-12-03T22:42:31.495302+00:00",
        "meta_object_name": "SOYUZ-MS 28",
        "meta_object_id": "2025-275A",
        "meta_epoch": "2025-12-03T10:43:27.497856",
        "meta_mean_motion": 15.49271748,
        "meta_eccentricity": 0.0003633,
        "meta_inclination": 51.6306,
        "meta_ra_of_asc_node": 188.4862,
        "meta_arg_of_pericenter": 200.0092,
        "meta_mean_anomaly": 160.0755,
        "meta_ephemeris_type": 0,
        "meta_classification_type": "U",
        "meta_norad_cat_id": 66664,
        "meta_element_set_no": 999,
        "meta_rev_at_epoch": 100,
        "meta_bstar": 0.00021633,
        "meta_mean_motion_dot": 0.000116,
        "meta_mean_motion_ddot": 0,
        "tle_line1": "1 66664U 25275A   25337.44684604  .00011600  00000+0  21633-3 0  9990",
        "tle_line2": "2 66664  51.6306 188.4862 0003633 200.0092 160.0755 15.49271748  1009"
      },
      "geometry": {
        "type": "Point",
        "coordinates": [
          91.27634771190293,
          -51.51520269434785
        ]
      }
    }
  ]
}